ONEWEB-0377             
1 49303U 21090AA  23329.86561639 -.00001292  00000+0 -32095-2 0  9990
2 49303  87.9170 100.4329 0001709 104.6979 255.4343 13.20760672108464
ONEWEB-0378             
1 49304U 21090AB  23329.90454203  .00000069  00000+0  13886-3 0  9991
2 49304  87.9188 100.4285 0001541  88.6618 271.4692 13.20772450106459
ONEWEB-0379             
1 49305U 21090AC  23329.92040969  .00000021  00000+0  20852-4 0  9994
2 49305  87.8948 115.6784 0001434  94.1066 266.0228 13.14505310104821
ONEWEB-0380             
1 49306U 21090AD  23329.97060162  .00000044  00000+0  77383-4 0  9993
2 49306  87.9172 130.9226 0001651  97.4668 262.6652 13.19724739104486
ONEWEB-0381             
1 49307U 21090AE  23329.85087489  .00000116  00000+0  25298-3 0  9999
2 49307  87.9234 100.4190 0001655 101.4765 258.6554 13.20772192106493
ONEWEB-0382             
1 49308U 21090AF  23329.91401230 -.00000071  00000+0 -20716-3 0  9993
2 49308  87.9176 100.4214 0001956  88.5775 271.5583 13.20770450106497
ONEWEB-0383             
1 49309U 21090AG  23329.91404521  .00000037  00000+0  66176-4 0  9991
2 49309  87.8957 115.6673 0001459  84.5976 275.5320 13.14507889104856
ONEWEB-0384             
1 49310U 21090AH  23329.90979547 -.00001234  00000+0 -30682-2 0  9990
2 49310  87.9187 100.4271 0001980  82.7266 277.4092 13.20763077106502
